#dP2022  4 22  0  0  0.00000000      96 __u+U ITR00 EXT  IAC
## 2206 432000.00000000   900.00000000 59691 0.0000000000000
+  117   C06C07C08C09C10C11C12C13C14C16C19C20C21C22C23C24C25
+        C26C27C28C29C30C32C33C34C35C36C37C38C39C40C41C42C43
+        C44C45C46E01E02E03E04E05E07E08E09E10E11E12E13E14E15
+        E18E19E21E24E25E26E27E30E31E33E34E36G01G02G03G04G05
+        G06G07G08G09G10G11G12G13G14G15G16G17G18G19G20G21G22
+        G23G24G25G26G27G28G29G30G31G32J02J03R01R02R03R04R05
+        R07R08R09R11R12R13R14R15R17R18R19R20R21R22R24  0  0
++         0  0  0  0  0  0  0  0  0  0  0  0  0  0  0  0  0
++         0  0  0  0  0  0  0  0  0  0  0  0  0  0  0  0  0
++         0  0  0  0  0  0  0  0  0  0  0  0  0  0  0  0  0
++         0  0  0  0  0  0  0  0  0  0  0  0  0  0  0  0  0
++         0  0  0  0  0  0  0  0  0  0  0  0  0  0  0  0  0
++         0  0  0  0  0  0  0  0  0  0  0  0  0  0  0  0  0
++         0  0  0  0  0  0  0  0  0  0  0  0  0  0  0  0  0
%c M  cc GPS ccc cccc cccc cccc cccc ccccc ccccc ccccc ccccc
%c cc cc ccc ccc cccc cccc cccc cccc ccccc ccccc ccccc ccccc
%f  0.0000000  0.000000000  0.00000000000  0.000000000000000
%f  0.0000000  0.000000000  0.00000000000  0.000000000000000
%i    0    0    0    0      0      0      0      0         0
%i    0    0    0    0      0      0      0      0         0
/* IAC                                ULTRA-RAPID PREDICTION
/* S/V CLOCKS ARE ALIGNED TO GNSS TIME                      
/* G:C1WC2W R:C1PC2P E:C1XC5X C:C2IC6I J:C1CC2S             
/* PCV:IGS14_2196 OL/AL:FES2004  NONE     YN ORB:CoN CLK:CoN
*  2022 04 22 14 45  0.00000000
PC06 -12091.349973  40481.127833   1733.569433   -156.731922
PC07  -4566.158634  28723.359190 -30494.819353    -72.647010
PC08 -18419.251862  23442.898611  29764.609983    273.362275
PC09  -6911.666584  41022.171252  -7967.130467   -720.043275
PC10   3824.755805  31592.983644 -27197.314072    135.322564
PC11 -13562.810254  20817.485066 -12621.652238    307.510559
PC12 -15958.436823   2682.328890 -22702.972126   -625.595499
PC13  -7987.585348  24596.167664  33360.752721    -53.446070
PC14 -11944.679615  10580.360725  22923.929097    461.385643
PC16 -13497.261535  39853.610878   4537.791133    122.663295
PC19   2697.137461 -17462.223042 -21572.458433    876.097155
PC20  17807.498426  -3591.172663 -21153.233634   -886.983205
PC21 -23174.557723 -13390.578937   7969.919894   -158.509044
PC22 -14561.723023 -21835.715397  -9518.779391   -970.154856
PC23   6442.476846  15001.414781 -22629.731536   -931.632843
PC24 -26415.318849   8941.069234   -578.859073   -955.937762
PC25 -12995.062290  17646.802787 -17272.220998   -747.291513
PC26 -23584.101557  -2847.034036  14603.972877    748.150480
PC27  14299.066366   7772.207091  22647.500339    711.823414
PC28   4320.039594  23910.784932  13724.360017     58.264331
PC29   7594.021260 -26585.026519   3749.339070    544.803756
PC30  15816.961152 -12929.537512  18988.797398    497.345722
PC32  23243.675218  13255.986563  -7875.546421   -962.833278
PC33  -2752.607054  17436.519028  21620.546949   -966.870856
PC34 -15691.223290  13952.913355 -18408.602938   -419.871761
PC35  -4602.662268 -24265.358868 -12965.199770    240.546045
PC36  13921.675621 -17272.242581  16952.656319   -963.920753
PC37  22875.743748   4194.768968 -15424.909409   -920.308149
PC38 -24555.871634  24656.007814  23741.917866    226.957067
PC39 -14827.681213  37995.389269  11067.446261     34.944021
PC40  -7712.317416  23372.700594 -34228.497104    262.975814
PC41  14201.374157  21862.949109  10006.763225   -966.629568
PC42 -18517.958339   2721.666496  20755.718409   -955.272571
PC43  -8145.383178  26339.755947  -4421.456052   -928.447476
PC44 -14664.380337  -7454.469297 -22551.741756    636.055710
PC45  -6691.903868 -14782.701376  22701.826536    738.004835
PC46  26047.872742  -9868.031941   2001.898168   -285.605400
PE01  -1433.386448  16652.473350 -24432.567407   -621.318545
PE02   1266.723795 -16675.424613  24416.849618    294.475430
PE03  -2030.075136 -27825.579250  -9902.776208   -550.689245
PE04  14456.109796  24455.146797  -8302.132518  -1012.111574
PE05  11854.987613 -14888.947494 -22661.996431   -188.453009
PE07 -18645.296547  -6512.204409  22062.884777   -661.173504
PE08 -14655.641721 -24231.619255   8642.767348   -516.689360
PE09  18515.090702   6300.503834 -22205.022794   -493.102249
PE10  15781.927476   5769.014488  24358.351221   -508.328970
PE11  21194.355521  -4391.359355  20169.772010   3885.223252
PE12   8224.224257  14657.086100  24365.012416   4650.118319
PE13 -20903.762618   3831.824997 -20608.687431    428.194384
PE14   8337.244959  21792.989596   6183.763922  -1823.122636
PE15  -8102.553478 -14680.596833 -24387.722830    750.119958
PE18 -16579.159460 -22302.231187 -16400.395198  -1534.587892
PE19    212.010957  27036.672976  12062.968678  -3443.202071
PE21 -20643.784717   9118.252455 -19155.430105   -729.947539
PE24  29144.656778   5065.509279   1367.111707   -574.992465
PE25  20873.393807  -8954.663423  18986.631103   -571.319884
PE26 -21092.957161  20423.668908  -3784.877599  -1059.984331
PE27 -29193.734159  -4118.314265  -2567.326323   -282.085400
PE30 -19569.815184 -15271.139181  16100.164435   -451.451700
PE31  20500.355318  14812.797308 -15379.488898   -495.472244
PE33  -9428.421029  24458.814117  13765.873344   -457.369152
PE34   9202.265577 -24440.153906 -13942.497187   -513.367036
PE36  21333.806462 -19948.022328   4761.170019   -363.303947
PG01  10865.638424 -20571.529215 -12767.412429    379.210792
PG02 -20889.449588  14516.227468  -7232.512955   -653.214086
PG03   2343.618997 -14951.601857 -21938.702234   -216.808781
PG04   1836.523369 -25001.847340  -8631.903954   -173.776435
PG05 -18345.535463   7547.553107  17572.106302    -79.227528
PG06 -18614.431722   -236.795312 -18913.350131    276.045579
PG07  -4945.170149 -15727.023424  21127.902595    320.863417
PG08   7513.730817 -19062.142862  16666.320728    -65.001267
PG09  -6955.436731 -25561.388872   1591.680268   -342.010148
PG10  23259.953358  11829.830592   5870.191949   -388.067997
PG11 -22723.979565  11721.024757  -7161.420967    -35.697428
PG12  -7343.759485  13322.574629 -22033.641938   -204.275805
PG13 -13133.602378  10898.416630  20154.475470    298.666492
PG14 -22169.479179 -13207.772776   6465.303458   -104.231612
PG15  -5197.544969  20470.834740  15506.811221    -66.956634
PG16  21986.964003  -1584.366378  14868.579208   -494.165145
PG17      0.000000      0.000000      0.000000    603.575151
PG18   3589.129699  15811.902676  21007.761085    189.067860
PG19 -14743.917210  -9035.765347 -20478.744704    147.737633
PG20 -24491.900771   2979.457871   9518.290111    515.704319
PG21  17521.177107 -19390.182690  -1075.508731    160.640216
PG22  15206.148155   5809.514048 -20611.290362    247.421597
PG23  15469.633090  15490.569975  15100.969632    -16.832603
PG24 -12516.733585  21796.659614  -8205.756634    252.922802
PG25   8197.279021  16870.595018 -19198.076853    315.310921
PG26  26093.014067   3862.002100   4229.733786    200.478874
PG27  13492.836749  -7087.899113  21497.590771    188.890163
PG28 -24557.750973  -9546.253869  -1606.580532    368.607539
PG29   3991.405437  26208.375065    887.898948   -505.858562
PG30 -13189.218081  -9254.383432  21219.703678   -524.903953
PG31  20549.979171  -1555.771166 -17135.088248   -174.527575
PG32  15216.884373  13302.243066 -17184.243330   -110.921287
PJ02 -30181.450446  16046.557758 -20137.123560     -2.923347
PJ03 -23670.053999  32093.329362  -9126.079456     -1.690502
PR01  17687.970339  10304.941954 -15201.084878      8.014645
PR02   8156.428889  -7198.494711 -23021.932710    516.302062
PR03  -5267.635240 -19212.957392 -15847.412299     55.369240
PR04 -15454.542281 -20288.958500     35.932705    137.963276
PR05 -17094.707129 -10251.261098  15921.410525     91.601712
PR07   5780.491632  19558.841456  15394.641123     34.166527
PR08  15522.028988  20257.907949    -13.464009    -64.752389
PR09 -20820.200297   9034.719481 -11702.590214     51.144651
PR11  13222.121719   7771.891133 -20369.622201     40.580030
PR12  24844.983013   -660.579299  -5761.976346     18.050271
PR13  21585.069300  -8393.876910  10674.054693    -21.263103
PR14   4783.084046 -11549.500966  22240.677428     76.790247
PR15 -13927.402575  -7745.553618  19933.845803     96.649557
PR17   7050.462586 -23793.136811  -5969.923440    519.748344
PR18  -2700.883774 -16031.127745 -19624.045001    114.413274
PR19 -10645.557994  -1407.351425 -23141.494154   -186.332851
PR20 -14029.423895  17554.299526 -12113.393359    -69.138600
PR21  -6390.472068  23537.586930   7435.165724   -295.380550
PR22   3004.586832  15483.118560  20065.840882   -178.542028
PR24  13723.403661 -18228.141973  11424.944088     90.272036
EOF
